ONEWEB-0207             
1 48242U 21031AJ  26191.24186862  .00000135  00000+0  33078-3 0  9995
2 48242  87.8975 285.1075 0001982  92.5945 267.5412 13.14504527251320
ONEWEB-0208             
1 48243U 21031AK  26191.22364434 -.00000143  00000+0 -41947-3 0  9992
2 48243  87.8960 285.1160 0002404 105.3197 254.8199 13.14502492251333
ONEWEB-0200             
1 48244U 21031AL  26190.57823615  .00000029  00000+0  43412-4 0  9992
2 48244  87.8984 285.2330 0002125  99.8545 260.2825 13.14501919251176
ONEWEB-0217             
1 48245U 21031AM  26191.20303220 -.00000152  00000+0 -44412-3 0  9998
2 48245  87.8979 285.1129 0002369 104.4516 255.6877 13.14502621251207
ONEWEB-0211             
1 48767U 21045A   26191.14894838  .00000011  00000+0 -42906-5 0  9996
2 48767  87.8991 254.5025 0002594 108.6306 251.5107 13.16196991247463
ONEWEB-0223             
1 48768U 21045B   26191.16258343  .00000127  00000+0  30339-3 0  9996
2 48768  87.8997 254.6145 0002236 109.5767 250.5605 13.15548350247425
ONEWEB-0230             
1 48769U 21045C   26191.13406229 -.00000103  00000+0 -30723-3 0  9995
2 48769  87.8986 254.6316 0001968  94.7708 265.3647 13.15548036247684
ONEWEB-0237             
1 48770U 21045D   26189.67787651 -.00000198  00000+0 -56114-3 0  9990
2 48770  87.8993 254.9224 0002385  98.5508 261.5893 13.15548482247214
ONEWEB-0235             
1 48771U 21045E   26191.09760772  .00000136  00000+0  32597-3 0  9994
2 48771  87.8997 254.6286 0002123 110.3181 249.8178 13.15549792247393
ONEWEB-0242             
1 48772U 21045F   26191.16733849  .00000147  00000+0  35555-3 0  9997
2 48772  87.8997 254.6121 0001937 102.6765 257.4582 13.15548407247448
ONEWEB-0241             
1 48773U 21045G   26191.15464174  .00000137  00000+0  32933-3 0  9995
2 48773  87.8976 254.6298 0002362 106.5017 253.6373 13.15550130247359
ONEWEB-0243             
1 48774U 21045H   26190.42577323  .00000025  00000+0  33243-4 0  9998
2 48774  87.8989 254.7878 0001721 111.4874 248.6440 13.15550977247283
ONEWEB-0222             
1 48775U 21045J   26190.40912849  .00000102  00000+0  23693-3 0  9996
2 48775  87.9000 254.7606 0002118 104.4947 255.6419 13.15547075247326
ONEWEB-0244             
1 48776U 21045K   26191.11980054 -.00000077  00000+0 -23762-3 0  9999
2 48776  87.9002 254.6148 0002025 101.9231 258.2126 13.15548038247980
ONEWEB-0247             
1 48777U 21045L   26191.11663135 -.00000036  00000+0 -12952-3 0  9992
2 48777  87.8986 254.6443 0001935 121.1444 238.9877 13.15548981247422
ONEWEB-0245             
1 48778U 21045M   26190.12312405 -.00000087  00000+0 -26509-3 0  9993
2 48778  87.8999 254.8234 0002227 102.6248 257.5132 13.15549482247268
