{"fetched_at":"2026-07-10T18:07:52.116Z","source":"https://celestrak.org/NORAD/elements/gp.php?GROUP=oneweb&FORMAT=JSON","constellation":"oneweb","records":[{"OBJECT_NAME":"ONEWEB-0207","OBJECT_ID":"2021-031AJ","EPOCH":"2026-07-10T05:48:17.448768","CLASSIFICATION_TYPE":"U","MEAN_MOTION":13.14504527,"ECCENTRICITY":0.00019825,"INCLINATION":87.8975,"RA_OF_ASC_NODE":285.1075,"ARG_OF_PERICENTER":92.5945,"MEAN_ANOMALY":267.5412,"EPHEMERIS_TYPE":0,"NORAD_CAT_ID":48242,"ELEMENT_SET_NO":999,"REV_AT_EPOCH":25132,"BSTAR":0.00033077835,"MEAN_MOTION_DOT":0.00000135,"MEAN_MOTION_DDOT":0},{"OBJECT_NAME":"ONEWEB-0208","OBJECT_ID":"2021-031AK","EPOCH":"2026-07-10T05:22:02.870976","CLASSIFICATION_TYPE":"U","MEAN_MOTION":13.14502492,"ECCENTRICITY":0.00024047,"INCLINATION":87.896,"RA_OF_ASC_NODE":285.116,"ARG_OF_PERICENTER":105.3197,"MEAN_ANOMALY":254.8199,"EPHEMERIS_TYPE":0,"NORAD_CAT_ID":48243,"ELEMENT_SET_NO":999,"REV_AT_EPOCH":25133,"BSTAR":-0.00041946996,"MEAN_MOTION_DOT":-0.00000143,"MEAN_MOTION_DDOT":0},{"OBJECT_NAME":"ONEWEB-0200","OBJECT_ID":"2021-031AL","EPOCH":"2026-07-09T13:52:39.603360","CLASSIFICATION_TYPE":"U","MEAN_MOTION":13.14501919,"ECCENTRICITY":0.0002125,"INCLINATION":87.8984,"RA_OF_ASC_NODE":285.233,"ARG_OF_PERICENTER":99.8545,"MEAN_ANOMALY":260.2825,"EPHEMERIS_TYPE":0,"NORAD_CAT_ID":48244,"ELEMENT_SET_NO":999,"REV_AT_EPOCH":25117,"BSTAR":0.000043411871,"MEAN_MOTION_DOT":2.9e-7,"MEAN_MOTION_DDOT":0},{"OBJECT_NAME":"ONEWEB-0217","OBJECT_ID":"2021-031AM","EPOCH":"2026-07-10T04:52:21.982080","CLASSIFICATION_TYPE":"U","MEAN_MOTION":13.14502621,"ECCENTRICITY":0.00023694,"INCLINATION":87.8979,"RA_OF_ASC_NODE":285.1129,"ARG_OF_PERICENTER":104.4516,"MEAN_ANOMALY":255.6877,"EPHEMERIS_TYPE":0,"NORAD_CAT_ID":48245,"ELEMENT_SET_NO":999,"REV_AT_EPOCH":25120,"BSTAR":-0.00044411658,"MEAN_MOTION_DOT":-0.00000152,"MEAN_MOTION_DDOT":0},{"OBJECT_NAME":"ONEWEB-0211","OBJECT_ID":"2021-045A","EPOCH":"2026-07-10T03:34:29.140032","CLASSIFICATION_TYPE":"U","MEAN_MOTION":13.16196991,"ECCENTRICITY":0.00025943,"INCLINATION":87.8991,"RA_OF_ASC_NODE":254.5025,"ARG_OF_PERICENTER":108.6306,"MEAN_ANOMALY":251.5107,"EPHEMERIS_TYPE":0,"NORAD_CAT_ID":48767,"ELEMENT_SET_NO":999,"REV_AT_EPOCH":24746,"BSTAR":-0.000004290595,"MEAN_MOTION_DOT":1.1e-7,"MEAN_MOTION_DDOT":0},{"OBJECT_NAME":"ONEWEB-0223","OBJECT_ID":"2021-045B","EPOCH":"2026-07-10T03:54:07.208352","CLASSIFICATION_TYPE":"U","MEAN_MOTION":13.1554835,"ECCENTRICITY":0.00022368,"INCLINATION":87.8997,"RA_OF_ASC_NODE":254.6145,"ARG_OF_PERICENTER":109.5767,"MEAN_ANOMALY":250.5605,"EPHEMERIS_TYPE":0,"NORAD_CAT_ID":48768,"ELEMENT_SET_NO":999,"REV_AT_EPOCH":24742,"BSTAR":0.00030339123,"MEAN_MOTION_DOT":0.00000127,"MEAN_MOTION_DDOT":0},{"OBJECT_NAME":"ONEWEB-0230","OBJECT_ID":"2021-045C","EPOCH":"2026-07-10T03:13:02.981856","CLASSIFICATION_TYPE":"U","MEAN_MOTION":13.15548036,"ECCENTRICITY":0.00019689,"INCLINATION":87.8986,"RA_OF_ASC_NODE":254.6316,"ARG_OF_PERICENTER":94.7708,"MEAN_ANOMALY":265.3647,"EPHEMERIS_TYPE":0,"NORAD_CAT_ID":48769,"ELEMENT_SET_NO":999,"REV_AT_EPOCH":24768,"BSTAR":-0.00030722613,"MEAN_MOTION_DOT":-0.00000103,"MEAN_MOTION_DDOT":0},{"OBJECT_NAME":"ONEWEB-0237","OBJECT_ID":"2021-045D","EPOCH":"2026-07-08T16:16:08.530464","CLASSIFICATION_TYPE":"U","MEAN_MOTION":13.15548482,"ECCENTRICITY":0.00023854,"INCLINATION":87.8993,"RA_OF_ASC_NODE":254.9224,"ARG_OF_PERICENTER":98.5508,"MEAN_ANOMALY":261.5893,"EPHEMERIS_TYPE":0,"NORAD_CAT_ID":48770,"ELEMENT_SET_NO":999,"REV_AT_EPOCH":24721,"BSTAR":-0.000561139,"MEAN_MOTION_DOT":-0.00000198,"MEAN_MOTION_DDOT":0},{"OBJECT_NAME":"ONEWEB-0235","OBJECT_ID":"2021-045E","EPOCH":"2026-07-10T02:20:33.307008","CLASSIFICATION_TYPE":"U","MEAN_MOTION":13.15549792,"ECCENTRICITY":0.00021233,"INCLINATION":87.8997,"RA_OF_ASC_NODE":254.6286,"ARG_OF_PERICENTER":110.3181,"MEAN_ANOMALY":249.8178,"EPHEMERIS_TYPE":0,"NORAD_CAT_ID":48771,"ELEMENT_SET_NO":999,"REV_AT_EPOCH":24739,"BSTAR":0.0003259722,"MEAN_MOTION_DOT":0.00000136,"MEAN_MOTION_DDOT":0},{"OBJECT_NAME":"ONEWEB-0242","OBJECT_ID":"2021-045F","EPOCH":"2026-07-10T04:00:58.045536","CLASSIFICATION_TYPE":"U","MEAN_MOTION":13.15548407,"ECCENTRICITY":0.00019371,"INCLINATION":87.8997,"RA_OF_ASC_NODE":254.6121,"ARG_OF_PERICENTER":102.6765,"MEAN_ANOMALY":257.4582,"EPHEMERIS_TYPE":0,"NORAD_CAT_ID":48772,"ELEMENT_SET_NO":999,"REV_AT_EPOCH":24744,"BSTAR":0.00035554779,"MEAN_MOTION_DOT":0.00000147,"MEAN_MOTION_DDOT":0},{"OBJECT_NAME":"ONEWEB-0241","OBJECT_ID":"2021-045G","EPOCH":"2026-07-10T03:42:41.046336","CLASSIFICATION_TYPE":"U","MEAN_MOTION":13.1555013,"ECCENTRICITY":0.0002362,"INCLINATION":87.8976,"RA_OF_ASC_NODE":254.6298,"ARG_OF_PERICENTER":106.5017,"MEAN_ANOMALY":253.6373,"EPHEMERIS_TYPE":0,"NORAD_CAT_ID":48773,"ELEMENT_SET_NO":999,"REV_AT_EPOCH":24735,"BSTAR":0.00032932662,"MEAN_MOTION_DOT":0.00000137,"MEAN_MOTION_DDOT":0},{"OBJECT_NAME":"ONEWEB-0243","OBJECT_ID":"2021-045H","EPOCH":"2026-07-09T10:13:06.807072","CLASSIFICATION_TYPE":"U","MEAN_MOTION":13.15550977,"ECCENTRICITY":0.00017219,"INCLINATION":87.8989,"RA_OF_ASC_NODE":254.7878,"ARG_OF_PERICENTER":111.4874,"MEAN_ANOMALY":248.644,"EPHEMERIS_TYPE":0,"NORAD_CAT_ID":48774,"ELEMENT_SET_NO":999,"REV_AT_EPOCH":24728,"BSTAR":0.000033242679,"MEAN_MOTION_DOT":2.5e-7,"MEAN_MOTION_DDOT":0},{"OBJECT_NAME":"ONEWEB-0222","OBJECT_ID":"2021-045J","EPOCH":"2026-07-09T09:49:08.701536","CLASSIFICATION_TYPE":"U","MEAN_MOTION":13.15547075,"ECCENTRICITY":0.00021188,"INCLINATION":87.9,"RA_OF_ASC_NODE":254.7606,"ARG_OF_PERICENTER":104.4947,"MEAN_ANOMALY":255.6419,"EPHEMERIS_TYPE":0,"NORAD_CAT_ID":48775,"ELEMENT_SET_NO":999,"REV_AT_EPOCH":24732,"BSTAR":0.0002369299,"MEAN_MOTION_DOT":0.00000102,"MEAN_MOTION_DDOT":0},{"OBJECT_NAME":"ONEWEB-0244","OBJECT_ID":"2021-045K","EPOCH":"2026-07-10T02:52:30.766656","CLASSIFICATION_TYPE":"U","MEAN_MOTION":13.15548038,"ECCENTRICITY":0.00020251,"INCLINATION":87.9002,"RA_OF_ASC_NODE":254.6148,"ARG_OF_PERICENTER":101.9231,"MEAN_ANOMALY":258.2126,"EPHEMERIS_TYPE":0,"NORAD_CAT_ID":48776,"ELEMENT_SET_NO":999,"REV_AT_EPOCH":24798,"BSTAR":-0.00023761751,"MEAN_MOTION_DOT":-7.7e-7,"MEAN_MOTION_DDOT":0},{"OBJECT_NAME":"ONEWEB-0247","OBJECT_ID":"2021-045L","EPOCH":"2026-07-10T02:47:56.948640","CLASSIFICATION_TYPE":"U","MEAN_MOTION":13.15548981,"ECCENTRICITY":0.00019358,"INCLINATION":87.8986,"RA_OF_ASC_NODE":254.6443,"ARG_OF_PERICENTER":121.1444,"MEAN_ANOMALY":238.9877,"EPHEMERIS_TYPE":0,"NORAD_CAT_ID":48777,"ELEMENT_SET_NO":999,"REV_AT_EPOCH":24742,"BSTAR":-0.00012952241,"MEAN_MOTION_DOT":-3.6e-7,"MEAN_MOTION_DDOT":0},{"OBJECT_NAME":"ONEWEB-0245","OBJECT_ID":"2021-045M","EPOCH":"2026-07-09T02:57:17.917920","CLASSIFICATION_TYPE":"U","MEAN_MOTION":13.15549482,"ECCENTRICITY":0.0002227,"INCLINATION":87.8999,"RA_OF_ASC_NODE":254.8234,"ARG_OF_PERICENTER":102.6248,"MEAN_ANOMALY":257.5132,"EPHEMERIS_TYPE":0,"NORAD_CAT_ID":48778,"ELEMENT_SET_NO":999,"REV_AT_EPOCH":24726,"BSTAR":-0.00026509423,"MEAN_MOTION_DOT":-8.7e-7,"MEAN_MOTION_DDOT":0}]}
